[{"OBJECT_NAME":"STARLINK-30368","OBJECT_ID":"2023-131W","EPOCH":"2026-03-09T22:00:01.999584","MEAN_MOTION":15.10444621,"ECCENTRICITY":9.044e-5,"INCLINATION":43.0006,"RA_OF_ASC_NODE":170.4263,"ARG_OF_PERICENTER":221.0122,"MEAN_ANOMALY":347.301,"EPHEMERIS_TYPE":0,"CLASSIFICATION_TYPE":"U","NORAD_CAT_ID":57752,"ELEMENT_SET_NO":999,"REV_AT_EPOCH":578,"BSTAR":0.092788954,"MEAN_MOTION_DOT":0.01700378,"MEAN_MOTION_DDOT":0},{"OBJECT_NAME":"ELEVATION-1","OBJECT_ID":"2025-009BW","EPOCH":"2026-03-09T17:34:53.371488","MEAN_MOTION":15.36649756,"ECCENTRICITY":0.00031551,"INCLINATION":97.3895,"RA_OF_ASC_NODE":153.1078,"ARG_OF_PERICENTER":317.9798,"MEAN_ANOMALY":42.1204,"EPHEMERIS_TYPE":0,"CLASSIFICATION_TYPE":"U","NORAD_CAT_ID":62677,"ELEMENT_SET_NO":999,"REV_AT_EPOCH":12152,"BSTAR":0.00076188329,"MEAN_MOTION_DOT":0.00027253,"MEAN_MOTION_DDOT":0}]
